<?xml version="1.0" encoding="utf-8" ?>
<kml xmlns="http://www.opengis.net/kml/2.2">
<Document id="root_doc">
<Schema name="buffered" id="buffered">
	<SimpleField name="id" type="string"></SimpleField>
	<SimpleField name="timestamp" type="string"></SimpleField>
	<SimpleField name="begin" type="string"></SimpleField>
	<SimpleField name="end" type="string"></SimpleField>
	<SimpleField name="altitudeMode" type="string"></SimpleField>
	<SimpleField name="tessellate" type="int"></SimpleField>
	<SimpleField name="extrude" type="int"></SimpleField>
	<SimpleField name="visibility" type="int"></SimpleField>
	<SimpleField name="drawOrder" type="int"></SimpleField>
	<SimpleField name="icon" type="string"></SimpleField>
</Schema>
<Folder><name>buffered</name>
  <Placemark id="buffered.1">
	<Style><LineStyle><color>ff0000ff</color></LineStyle><PolyStyle><fill>0</fill></PolyStyle></Style>
	<ExtendedData><SchemaData schemaUrl="#buffered">
		<SimpleData name="id">mithi_river.1</SimpleData>
		<SimpleData name="tessellate">-1</SimpleData>
		<SimpleData name="extrude">0</SimpleData>
		<SimpleData name="visibility">-1</SimpleData>
	</SchemaData></ExtendedData>
      <MultiGeometry><Polygon><outerBoundaryIs><LinearRing><coordinates>72.830011877813,19.0447682291479 72.8286854960233,19.0464198708338 72.8279938986987,19.0483912474771 72.8280118314925,19.0504693617714 72.8287373823582,19.0524296765902 72.8300921773861,19.0540603751519 72.8319298399918,19.055185250057 72.8319913394297,19.0552104481429 72.834728962386,19.0557256819896 72.8348309704957,19.0557241250932 72.835221266334,19.0557568021147 72.8362528104936,19.0557667694178 72.8367311456539,19.0557360211107 72.8368478491345,19.0557178514912 72.8375057167598,19.0561023657022 72.838023476492,19.0563755565643 72.8391851288072,19.0569256422743 72.8395493725919,19.0570852733856 72.8411141920894,19.0577173610968 72.8414987121796,19.0578594581243 72.842363123922,19.0581498776833 72.84385983568,19.0584740205496 72.8447318202032,19.0585641182772 72.8449649894758,19.058591877365 72.8454273008499,19.0586313884103 72.8457553018187,19.0586484730104 72.8471540029401,19.0585617287304 72.8475579323488,19.0586633792868 72.8478107660146,19.0586975469544 72.8489262457694,19.0587186344093 72.8496303954602,19.0593758601587 72.8496497157278,19.0593938196918 72.8497527939256,19.0594892492627 72.8493469601407,19.0603997536779 72.8492157568028,19.0625543354172 72.8498543543146,19.0646253457302 72.8511883647153,19.0663714521135 72.853062352011,19.0675891750205 72.8536295128483,19.0678351764326 72.855483061181,19.0683464139819 72.8574129477383,19.068329983201 72.8592565741747,19.0677872666862 72.8608586111169,19.0667639880762 72.8620840888514,19.0653463590504 72.8624662080553,19.06474343202 72.8627762762,19.0643772190705 72.8628134835914,19.0643409899524 72.8634674335159,19.0635123094545 72.863513563795,19.063663368035 72.8637305788095,19.0642607271939 72.8642511329734,19.0654906492822 72.8644792498585,19.0660640800208 72.8645963509596,19.0663388007897 72.8648228894001,19.0668364192969 72.8648289752637,19.0668575994872 72.8649417088196,19.0671992570832 72.8649700304841,19.067283044114 72.8650245543045,19.0674405752592 72.8651355208791,19.0680929762002 72.8650966701564,19.068103130961 72.8651141816052,19.0681636997538 72.8651387496077,19.0682818827396 72.8652267965513,19.0686479226906 72.8652978614724,19.0689076207266 72.8653327995728,19.0690473953383 72.8653822681998,19.0692327887889 72.8655317746616,19.0697595328442 72.8656266263223,19.0700949482305 72.865703357143,19.070337706599 72.8656631427186,19.0704529403229 72.8656289708851,19.0706271824982 72.8656956195853,19.0706389990506 72.8656630553131,19.0707099083047 72.8654486622777,19.0712931995548 72.8653761615231,19.0714870415816 72.8652354905416,19.0725085286303 72.8650735714207,19.0729187175055 72.8649488551795,19.0732996572388 72.8648575048446,19.0737481882562 72.864835526124,19.0737430268077 72.8648013561001,19.0738745623087 72.8647393483027,19.0742124055251 72.864733355852,19.0742112340474 72.8647060189297,19.0743376449568 72.8646966449556,19.0744450693386 72.8646428614444,19.0747381008045 72.8646326081834,19.0748320551865 72.8646626176265,19.0748350156832 72.8645743700133,19.0758463016736 72.8645777830633,19.0759334234618 72.8648323832167,19.0774461028378 72.8648716686679,19.0775759326036 72.8661895589704,19.0799159140804 72.8663159693261,19.0800577041777 72.8675402688586,19.0811257182074 72.8680390904736,19.0814622592982 72.8685350082936,19.0817663162549 72.8695292417259,19.0823181088344 72.8702452519335,19.0826622068954 72.8703565926795,19.082707920807 72.8703041909666,19.0839834498663 72.8707509508994,19.0857034272882 72.8708312333378,19.0858930478434 72.8708996281267,19.0860485721717 72.8710157823987,19.0863031081381 72.871602767554,19.08732145532 72.8716963220943,19.0874533587608 72.8719506379955,19.0889016638808 72.872289432394,19.089639317515 72.8722876513246,19.0896399725899 72.872467004891,19.0900807120271 72.8725783445871,19.0902683581395 72.8726043664023,19.0903250145014 72.87267781909,19.0904428874392 72.8727354191267,19.090533082615 72.8734077383017,19.0916661610462 72.8747846486668,19.0929310796917 72.8764835996179,19.0937706056598 72.8783637498338,19.0941151396904 72.8789890018053,19.0941424753925 72.8811095799074,19.0939091127606 72.8830431246607,19.0930490326413 72.8845903975618,19.0916508598425 72.8855919728878,19.0898586650852 72.885944665459,19.0878571163482 72.8859463602948,19.0875205848946 72.8859384142602,19.0871798598405 72.8859130306546,19.086688993557 72.8858979155336,19.0861486474517 72.8858938900559,19.086039939418 72.8858699533302,19.0855206227928 72.8858438522902,19.085173333434 72.8858148004335,19.0848948846434 72.8854725792436,19.0834266777999 72.8853068605413,19.0829774057008 72.8852534734581,19.0828905405834 72.8853402573064,19.0826508159333 72.8855544397349,19.0819141082627 72.885588350103,19.0818145779268 72.8858700862301,19.0805747333807 72.8858939943562,19.080373155372 72.8858701556806,19.0787780423323 72.8858223111774,19.0784568871884 72.8857612481192,19.078114867203 72.8857014472503,19.0778278781104 72.8845741286584,19.0753612071037 72.8844460046239,19.0751920913549 72.8837782294282,19.074441447389 72.8834246144355,19.0741015096498 72.8833530317426,19.0740337329789 72.8832009946382,19.073891949982 72.8821834416391,19.0731137818064 72.8820570310854,19.073035203853 72.881715285583,19.0728364779831 72.8815957085616,19.0727715659101 72.880718230268,19.0723730732212 72.8806584422812,19.072350866597 72.8803987891128,19.0723067991876 72.8804710279341,19.071955480404 72.8804639742335,19.0694954760903 72.8804545769836,19.0694510611162 72.8804496271982,19.0694278907024 72.880421416339,19.0692970871826 72.8804213986039,19.0692958042504 72.8804128522517,19.069171954169 72.8804084370115,19.0691184919131 72.8804021278667,19.0689550745516 72.8803858081667,19.0686873761682 72.8803840990681,19.0686668768551 72.8803489121408,19.0683630593754 72.8804214257142,19.0677819593687 72.880424708815,19.0677820252092 72.8804254203838,19.0677499472257 72.8804291006376,19.0677204547045 72.8804276177341,19.0676508889808 72.8804286757521,19.0676031925663 72.8804300260736,19.0675524797956 72.8804183860114,19.0673990542531 72.8805120154916,19.0665802731339 72.8805111596777,19.0665384202748 72.8803832934956,19.0660080488662 72.880382356344,19.0659581738611 72.8801144931685,19.0642912368013 72.8797769740385,19.0635709043 72.8795749592902,19.0628109668042 72.8795049142209,19.0626418494173 72.8792289795057,19.0620628389902 72.8789882885398,19.0616186416575 72.8789307165936,19.0615099743579 72.8789037026701,19.0614512937784 72.878658601973,19.060974433837 72.8784843491991,19.0606686573847 72.8777209862698,19.0596600469976 72.8776130461667,19.0593828162152 72.8775410163062,19.0592060053729 72.8773388948228,19.0587311255142 72.8769405741118,19.057600959987 72.8768970201826,19.0574813687949 72.8766510054072,19.05682710576 72.876435927999,19.0563243199992 72.8763727871721,19.0561931501147 72.8762785684759,19.0559330697758 72.8759392522685,19.0551649576457 72.8756949548714,19.0547003134974 72.8756460841944,19.0546092127025 72.875348828351,19.054065989371 72.8744896989895,19.0528596286509 72.8741761963898,19.0525133117852 72.8738848137081,19.0521875650489 72.8738519445445,19.0522141510387 72.8728426479443,19.0513427751008 72.8729119867392,19.0512645922556 72.8727216634532,19.0511119609233 72.8725026126948,19.0509133879471 72.8724651262567,19.0508796688923 72.8723245549544,19.0507542040672 72.8715659963468,19.0496916627042 72.8696480344815,19.0483938202081 72.869598495676,19.048371613516 72.8675845827385,19.047816434363 72.8669350912232,19.0478377709049 72.8653207170817,19.0474963462964 72.8646156037528,19.0474811042688 72.8636083561787,19.0472963712843 72.8617777690788,19.0469559224721 72.8611935020989,19.0459124318996 72.8610944205387,19.0457996883699 72.858928928634,19.0441814870427 72.8586077801807,19.0440311647162 72.858377294005,19.0439333643949 72.8583402508313,19.0439079322949 72.8578796557946,19.0436185877073 72.8575039986729,19.0434033508085 72.8572182401356,19.0432015197542 72.857007423089,19.0430185078594 72.8560822040509,19.0423465560915 72.8557815522316,19.0421654852517 72.8552753628298,19.041901328216 72.854995676463,19.0416482840375 72.8549000144938,19.0415902047035 72.8533537543654,19.0408991032078 72.8526260512102,19.0406770377038 72.8521419901793,19.0405482967961 72.8511790863972,19.0403291572682 72.8498003160341,19.0400033915681 72.8495106623682,19.0399326900283 72.8489944966552,19.0397871072854 72.8484994953564,19.0396205227354 72.8473874049266,19.0392259159474 72.8453788282335,19.0388341247288 72.8433402384339,19.039043011724 72.8414655242914,19.0398327077447 72.8399329920835,19.0411281031163 72.8397846256819,19.0413664233766 72.8393563393503,19.0413155172397 72.8387174690329,19.0413462674192 72.8387184236338,19.0413642040895 72.8378852882736,19.0414331096341 72.8378168690411,19.0414445131374 72.8376806156988,19.0414002233771 72.8356322472307,19.0413613256035 72.8336686817016,19.0419173812672 72.831976376486,19.0430155864181 72.830011877813,19.0447682291479</coordinates></LinearRing></outerBoundaryIs></Polygon></MultiGeometry>
  </Placemark>
</Folder>
</Document></kml>
