<?xml version="1.0" encoding="utf-8" ?>
<kml xmlns="http://www.opengis.net/kml/2.2">
<Document id="root_doc">
<Schema name="mithi_river" id="mithi_river">
	<SimpleField name="id" type="float"></SimpleField>
</Schema>
<Folder><name>mithi_river</name>
  <Placemark id="mithi_river.1">
	<Style><LineStyle><color>ff0000ff</color></LineStyle><PolyStyle><fill>0</fill></PolyStyle></Style>
      <MultiGeometry><Polygon><outerBoundaryIs><LinearRing><coordinates>72.8345607535566,19.0493790151633 72.834622251442,19.0494042122136 72.8350698193867,19.0493973791152 72.835804377464,19.0494588770008 72.8362826943516,19.049428128058 72.8366516816648,19.0493358812297 72.8370138358797,19.0493153819345 72.8373589073486,19.0492982991885 72.8375194851608,19.0492128854586 72.837782559449,19.0488165657518 72.8378338076869,19.0487482347678 72.8379670531056,19.0486149893492 72.8380934654259,19.0485295756192 72.8382608763365,19.0484475784385 72.8385888650594,19.0484783273813 72.8388451062492,19.0484919935781 72.8390637653978,19.0484714942829 72.8393575886287,19.048403163299 72.8395864974249,19.048351915061 72.8397539083355,19.0483929136514 72.8397744076307,19.0484236625941 72.8397470752371,19.0485261590701 72.8397368255895,19.0488131492026 72.8396855773516,19.0491753034174 72.8396992435484,19.0494349611564 72.8397846572783,19.0497185347397 72.839883737205,19.049896195298 72.8402390583214,19.050278848808 72.8409872825955,19.0507161671052 72.8421489093224,19.0512662315259 72.8437136888545,19.0518982931273 72.8445780758013,19.052188699809 72.8455039606337,19.0522843631865 72.8457909507662,19.0523185286785 72.8461189394891,19.0523356114244 72.8470789898134,19.0521647839646 72.8473557302983,19.0521477012186 72.8476153880373,19.0521340350218 72.8478750457762,19.052171617063 72.8484934411808,19.0524039424084 72.8487462658214,19.0524381079004 72.8488521788465,19.0524278582528 72.8490674214459,19.0523663603672 72.8493202460865,19.0522501976945 72.8495423217843,19.0521408681202 72.850075303459,19.0519837068572 72.8506561168224,19.0521477012186 72.8518314097461,19.0527011821885 72.8523814741668,19.0531385004857 72.8533654403355,19.0540028874325 72.8542879086186,19.0548638578301 72.8550702983846,19.0555881662598 72.855162545213,19.0557248282277 72.8552650416889,19.0559161549827 72.8554802842883,19.0561792292708 72.8556306124529,19.0564320539114 72.8558697708967,19.0568557060118 72.8562353416608,19.0574023538833 72.8563207553907,19.0575560985971 72.8564881663013,19.0578533383772 72.8565496641869,19.0580617478782 72.8566419110152,19.058335071814 72.8568434874178,19.058768973562 72.8572227243786,19.0591072119325 72.8572568898706,19.059568446074 72.8566692434088,19.0605865777347 72.855821939208,19.0618370347407 72.8563890863746,19.0620830262828 72.85700406523,19.061112726311 72.8577967046437,19.060176591831 72.8580563623826,19.0599237671905 72.8583160201216,19.0594864488933 72.8586850074348,19.0589398010218 72.8591769905192,19.0583043228712 72.86002429472,19.0579080031644 72.8612064207421,19.0574980172608 72.8634434063287,19.0567011071606 72.8636586489281,19.0566481506481 72.864195047152,19.0564653652661 72.8645845337604,19.0563312657101 72.8649321676412,19.0562304775088 72.8651670553985,19.0562432895683 72.8657598266841,19.0562586640396 72.8661886036083,19.0562612264515 72.8665909022762,19.0563637229275 72.8668599555255,19.056450844932 72.867272503841,19.0568104367349 72.867738008669,19.0572281098742 72.8683786116434,19.0578482135534 72.8688364292358,19.0590747547151 72.8689970070481,19.0595838205454 72.8696871499858,19.0612066814139 72.869898976036,19.0619002409008 72.8704456239075,19.0631916964972 72.8706984485481,19.0638271746478 72.8710811020581,19.0646676457502 72.8711255171977,19.0647701422261 72.8711733488864,19.0649648855303 72.8712860950099,19.06530654045 72.8713475928954,19.0654842010082 72.8714193404286,19.0656755277632 72.8714364231746,19.0658361055755 72.8714227569778,19.0662085094379 72.8715081707077,19.0664271685865 72.8715901678884,19.0667107421699 72.8716619154215,19.0670558136387 72.8717507457007,19.0673803858124 72.8718019939386,19.0675853787642 72.8719523221033,19.0681149438897 72.8720479854808,19.0684531822602 72.8720958171695,19.0685898442281 72.8721778143502,19.0687948371799 72.8722529784326,19.0689964135825 72.8725792588808,19.0698454260579 72.8726065912744,19.0699803797512 72.8726612560616,19.070159748584 72.8727347118693,19.070359616712 72.8726390484918,19.0708054763822 72.8725997581761,19.0713811649219 72.8724460134622,19.0713965393932 72.8723298507895,19.0714734117502 72.87220002192,19.0716117819926 72.8721658564281,19.0717860260017 72.8721521902313,19.0718475238872 72.8721214412885,19.0719278127933 72.8721316909361,19.0720081016995 72.8722358956866,19.0721328057451 72.8722068550184,19.0723172994018 72.8719403641811,19.0727956162893 72.8717199967579,19.0733952206734 72.8716414161264,19.073605338449 72.871651665774,19.0737249176708 72.8716379995772,19.074022157451 72.8716499574994,19.0741058629063 72.8716670402453,19.0742271504028 72.8716157920074,19.0743826033912 72.8714227569778,19.0747977141186 72.8712980529321,19.0751786593541 72.8712912198337,19.0752589482602 72.8712570543417,19.0753904854043 72.8712468046941,19.0754844405072 72.8712194723006,19.0756108528275 72.8712228888498,19.075697974832 72.8712621791655,19.0758278037015 72.8713885914858,19.0759695904931 72.8718874076686,19.076306120589 72.8728816234848,19.0768578932843 72.873301859036,19.0770304290187 72.8737067201158,19.0771961316548 72.8737682180014,19.0772012564786 72.8739817523262,19.0772166309499 72.8740962067242,19.0772080895769 72.8742772838317,19.0772542129911 72.8744293202709,19.0772883784831 72.8745642739642,19.0773498763686 72.8746069808292,19.0773772087622 72.8746838531861,19.0774369983731 72.8746975193829,19.0774745804143 72.8746326049481,19.0776795733661 72.8748324730762,19.0777923194896 72.8751416707785,19.0780400193064 72.8753910788698,19.0783748411276 72.8756917351992,19.0788480331914 72.8759650591349,19.0792170205047 72.8760009329014,19.0792973094108 72.8760350983934,19.0793605155709 72.8760846383568,19.0794698451452 72.8761410114185,19.0795825912687 72.8761956762057,19.0796680049986 72.8762981726816,19.0796628801748 72.8764604587684,19.0795655085227 72.8765937041871,19.0795125520102 72.8767747812945,19.0794561789484 72.8770822707222,19.0793058507838 72.8771078948412,19.079292184587 72.8773248457152,19.0791606474429 72.8774427166625,19.0791025661066 72.8776357516921,19.0791076909304 72.8777672888362,19.0791316067747 72.8781448175224,19.0794459293008 72.878197774035,19.0795415926783 72.8782626884697,19.0796714215478 72.8782848960395,19.0797158366874 72.8783036870601,19.0797995421427 72.8782473139983,19.0800045350945 72.8780594037925,19.0804521030393 72.8780218217513,19.080551182966 72.8780013224562,19.0806229304991 72.877997905907,19.0806912614831 72.8779842397102,19.0808432979223 72.8776904164793,19.0814941505443 72.8775691289828,19.0817264758897 72.8773760939531,19.0820920466537 72.8771864754727,19.0825652387175 72.8771745175506,19.0826130704062 72.8771420603332,19.0827275248043 72.877078854173,19.0829461839529 72.8770412721319,19.0831101783144 72.8769199846354,19.0833425036598 72.8770002735415,19.0835321221402 72.8771164362142,19.0837866550553 72.8773248457152,19.0840804782863 72.8776904164793,19.0845912523912 72.8780098638292,19.0850422368852 72.8781226099527,19.0852626043084 72.8782285229778,19.0854880965553 72.8782729381173,19.0857067557039 72.878274646392,19.0859356645001 72.8783071036093,19.086680472225 72.8783258946299,19.0871024160508 72.8783993504376,19.0872202869981 72.8784898889913,19.0873586572406 72.8786692578242,19.087799392087 72.8792944863272,19.0878267244805 72.8792961946018,19.0874901943846 72.8792671539336,19.0869281720418 72.8792500711876,19.0863166097356 72.8792261553432,19.0857972942576 72.8791971146751,19.0855188454981 72.879031412039,19.0850695692787 72.8789289155631,19.0849585314298 72.8787102564145,19.0847825791462 72.8785787192705,19.0844528821487 72.8784608483232,19.0840087307531 72.8781362761495,19.0835782455543 72.8779842397102,19.0833783774263 72.8778988259803,19.083269047852 72.8778527025662,19.0831648431015 72.8778458694678,19.0830743045478 72.8778561191153,19.0829513087767 72.878032071399,19.0826643186442 72.8783515187489,19.0821825852075 72.8787546715541,19.0813694464986 72.8789306238378,19.0809662936934 72.8791834484783,19.0800967819228 72.8792620291098,19.079866164852 72.8792859449542,19.0796645884494 72.8792381132655,19.0793434328249 72.8791783236545,19.0790564426924 72.8790502030596,19.0788873235072 72.8786965902178,19.0785473768621 72.8785445537785,19.0784055900704 72.8784181414582,19.0783270094389 72.8782985622364,19.0782620950042 72.8782387726254,19.0782398874344 72.8781448175225,19.078241595709 72.8780457375958,19.0782706363771 72.8779876562594,19.0782979687707 72.8778834515089,19.0783577583817 72.8776220854954,19.0784431721116 72.8775025062735,19.0784978368987 72.877364136031,19.0785781258049 72.877189892022,19.0786874553792 72.8770686045255,19.0787728691091 72.8769097349879,19.078815575974 72.8767184082329,19.0787216208711 72.8764536256701,19.0782911356723 72.8760214321967,19.0776744485423 72.875930893643,19.0775668272426 72.8757532330848,19.0774677473159 72.8756268207645,19.0774250404509 72.8753552051033,19.0773208357004 72.8747795165637,19.0770184710965 72.8747077690306,19.076974055957 72.8744054044267,19.0767536885338 72.8739971267976,19.0765982355453 72.8734316879056,19.0763761598475 72.8732386528759,19.0762685385478 72.8728696655627,19.0760737952436 72.8723674328308,19.075723598951 72.8722563949819,19.0756211024751 72.8721590233298,19.0753751109329 72.8721641481535,19.0746012625398 72.8721641481535,19.0743074393089 72.8722786025516,19.0741383201237 72.8726270905697,19.073519924719 72.872770585636,19.0732192683897 72.8729653289402,19.0728554059003 72.8729892447845,19.0728280735067 72.8730422012971,19.0727819500925 72.8730746585145,19.0726282053787 72.8730575757685,19.072477877214 72.8731224902032,19.0723463400699 72.8732557356219,19.0722848421844 72.8733684817454,19.072243843594 72.8734009389628,19.0719927272281 72.8734761030451,19.0718646066332 72.8735376009306,19.0717962756493 72.8735990988162,19.0717364860383 72.8736332643081,19.0715417427341 72.8736793877223,19.0713811649219 72.8737220945873,19.0713025842903 72.8737767593744,19.0712632939746 72.8738519234567,19.0711949629906 72.8739450244224,19.0707422702221 72.8739356289121,19.0706978550825 72.8738672979281,19.0703809701445 72.8738621731043,19.070359616712 72.8738322782989,19.0702554119615 72.8737895714339,19.0701443741126 72.8737793217863,19.0700145452432 72.8737776135117,19.0699163194537 72.8737861548847,19.0697096182273 72.8737810300609,19.0696865565203 72.8737776135117,19.069585768319 72.8737690721387,19.0694969380398 72.8737571142165,19.0691868862002 72.8737554059419,19.0691663869051 72.8737391773333,19.0690570573308 72.8737263652738,19.0689818932484 72.873687074958,19.0687273603333 72.8736845125461,19.0687034444889 72.8736887832326,19.0685804487178 72.8736862208207,19.0684882018895 72.8736751170358,19.0683703309422 72.873678533585,19.0682200027776 72.8736588884271,19.0680141556884 72.8736588884271,19.0679287419585 72.8736665756628,19.0679065343887 72.8737314900976,19.0678732230341 72.8737810300609,19.0678484530524 72.873778467649,19.0677280196932 72.8737767593744,19.0676485849244 72.8737810300609,19.0674564040321 72.8737827383355,19.0673923437346 72.8737690721387,19.067316325515 72.8737673638641,19.0672069959407 72.8737724886879,19.0671292694465 72.8737878631593,19.0670096902246 72.8738459444957,19.06677394833 72.873863881379,19.0667030549342 72.8738630272416,19.0666612022065 72.8738502151822,19.0666347239502 72.8737835924728,19.0665715177901 72.8737203863127,19.0664451054698 72.8737238028619,19.0662853817949 72.8737366149214,19.0662076553006 72.8737340525095,19.0660709933328 72.8737080013218,19.0660308488797 72.8736601696331,19.0659864337402 72.8736008070908,19.0659492787676 72.8735247888712,19.0658630109004 72.873512830949,19.0658467822917 72.8734953211343,19.0658275642025 72.8734816549375,19.0658100543879 72.8734538954753,19.0657763159645 72.8734568849559,19.065739160992 72.8734556037499,19.065707557912 72.873418875846,19.0653701736788 72.8733881269033,19.0651275986858 72.8733180876447,19.0649584795006 72.8730635547296,19.064488703986 72.8729115182903,19.0642017138535 72.8728124383636,19.0639864712541 72.8726381943546,19.063680690101 72.8723238718285,19.0634910716206 72.8721581691924,19.0632279973324 72.8719395100438,19.0629427154745 72.8718011398014,19.0626523087928 72.8716883936779,19.0624148586236 72.8716388537145,19.0622491559875 72.871377487701,19.0615778040704 72.8710990389415,19.0609235348992 72.8706360965253,19.059609871733 72.8703901049831,19.0589556025619 72.8701919451297,19.0585439083836 72.8699920770017,19.0579921356884 72.8697477937341,19.0575274849976 72.869450553954,19.0569842536753 72.8691242735057,19.0566238077351 72.8688202006272,19.05628386109 72.8687159958767,19.0561489073967 72.868625457323,19.0560976591588 72.8682803858541,19.0558209186738 72.8679148150901,19.0554895134017 72.8677081138637,19.0553050197451 72.8674860381659,19.0551598164042 72.8672246721523,19.0549872806698 72.8669650144134,19.0548813676447 72.8668061448757,19.0546729581437 72.8668386020931,19.0545021306839 72.8668129779741,19.0541126440754 72.8667634380108,19.0540904365056 72.8666438587889,19.0541126440754 72.8666472753381,19.0541673088626 72.8666438587889,19.0542288067481 72.8666148181207,19.0542390563957 72.8665652781574,19.0542407646703 72.8661877494711,19.0543295949494 72.865907592437,19.0543022625558 72.8656752670916,19.0540289386201 72.8651696178105,19.0538171125699 72.8639054946077,19.0537897801763 72.8623407150756,19.0535027900438 72.8598056355716,19.0530313062546 72.8580495292844,19.0525939879575 72.8578889514722,19.0524504928912 72.8577420398567,19.0523104143741 72.8576156275364,19.0521259207175 72.8574926317653,19.0519755925528 72.857417467683,19.0518594298802 72.8571270610013,19.0517125182647 72.857034814173,19.0517261844615 72.8569118184019,19.0517808492486 72.856740990942,19.0518935953721 72.856566746933,19.0519004284705 72.8563617539812,19.0518355140358 72.8561396782834,19.0515724397476 72.8559722673728,19.0513059489103 72.8556237793547,19.0508173823751 72.8557706909702,19.0506909700549 72.8559859335696,19.0505167260458 72.8561430948326,19.050277567602 72.8561533444802,19.0501682380278 72.8560918465947,19.0499666616251 72.855992766668,19.0498539155017 72.8556716110434,19.049703587337 72.8553675381649,19.0495874246643 72.8548960543758,19.0493653489665 72.8546773952272,19.0491911049575 72.854448486431,19.0490339436944 72.8538164248296,19.0486717894796 72.8536250980746,19.0485112116673 72.8531262818919,19.0482173884364 72.8528358752101,19.0479577306974 72.8525249692332,19.0476878233109 72.8522243129039,19.0475067462035 72.8520637350917,19.0474349986703 72.851879241435,19.0474076662768 72.8514316734903,19.0471480085378 72.8514419231379,19.0470728444555 72.8514180072935,19.046977181078 72.851322343916,19.0469190997416 72.8505946189371,19.0466970240438 72.84960381967,19.0464715317968 72.8481722855566,19.0461332934264 72.8477383838086,19.0460273804013 72.8469389112965,19.0458018881543 72.8462282690636,19.0455627297105 72.8450632257875,19.0451493272577 72.843457447665,19.0489758623581 72.8432387885164,19.0493721820649 72.8430884603518,19.0496318398039 72.8430132962694,19.0498641651492 72.8428219695144,19.0501101566914 72.842657975153,19.0502331524625 72.8422548223477,19.0501853207737 72.8421249934783,19.0501306559866 72.8421659920686,19.0499803278219 72.8422343230526,19.0497411693782 72.8423436526269,19.0493585158681 72.8425554786771,19.0487913687015 72.8425247297343,19.0487503701111 72.8417252572223,19.0482959690679 72.8410829459733,19.0480602271734 72.8405192153558,19.0478723169675 72.8396924104502,19.0476297419746 72.8390535157504,19.0476604909173 72.8390330164552,19.0476604909173 72.8387460263227,19.0477083226061 72.8384761189361,19.0478074025328 72.8381993784512,19.048002145837 72.8381002985245,19.0480397278782 72.8379499703598,19.0480943926653 72.8377005622685,19.0481183085097 72.83731107566,19.048019228583 72.8365252693448,19.0476263254254 72.8345607535566,19.0493790151633</coordinates></LinearRing></outerBoundaryIs></Polygon></MultiGeometry>
  </Placemark>
</Folder>
</Document></kml>
