{"type": "FeatureCollection", "name": "Mithi detected garbage locations", "features": [{"type": "Feature", "properties": {"id": 0, "name": "0", "kind": "garbage", "label": "0"}, "geometry": {"type": "Point", "coordinates": [72.878617068224, 19.0933363450354]}}, {"type": "Feature", "properties": {"id": 1, "name": "1", "kind": "garbage", "label": "1"}, "geometry": {"type": "Point", "coordinates": [72.8790202592375, 19.0941154985784]}}, {"type": "Feature", "properties": {"id": 2, "name": "2", "kind": "garbage", "label": "2"}, "geometry": {"type": "Point", "coordinates": [72.8784159963419, 19.0928776498045]}}, {"type": "Feature", "properties": {"id": 3, "name": "3", "kind": "garbage", "label": "3"}, "geometry": {"type": "Point", "coordinates": [72.8785552805102, 19.0922482529237]}}, {"type": "Feature", "properties": {"id": 4, "name": "4", "kind": "garbage", "label": "4"}, "geometry": {"type": "Point", "coordinates": [72.8784641698137, 19.0925331047566]}}, {"type": "Feature", "properties": {"id": 5, "name": "5", "kind": "garbage", "label": "5"}, "geometry": {"type": "Point", "coordinates": [72.8786998009254, 19.0928252873352]}}, {"type": "Feature", "properties": {"id": 6, "name": "6", "kind": "garbage", "label": "6"}, "geometry": {"type": "Point", "coordinates": [72.8786778086884, 19.0920429920441]}}, {"type": "Feature", "properties": {"id": 7, "name": "7", "kind": "garbage", "label": "7"}, "geometry": {"type": "Point", "coordinates": [72.8786149737252, 19.0918995188782]}}, {"type": "Feature", "properties": {"id": 8, "name": "8", "kind": "garbage", "label": "8"}, "geometry": {"type": "Point", "coordinates": [72.8787354074045, 19.0916806437566]}}, {"type": "Feature", "properties": {"id": 9, "name": "9", "kind": "garbage", "label": "9"}, "geometry": {"type": "Point", "coordinates": [72.8790694799586, 19.0914795718745]}}, {"type": "Feature", "properties": {"id": 10, "name": "10", "kind": "garbage", "label": "10"}, "geometry": {"type": "Point", "coordinates": [72.8790778579537, 19.0913141064716]}}, {"type": "Feature", "properties": {"id": 11, "name": "11", "kind": "garbage", "label": "11"}, "geometry": {"type": "Point", "coordinates": [72.8792475123541, 19.0875523866781]}}, {"type": "Feature", "properties": {"id": 12, "name": "12", "kind": "garbage", "label": "12"}, "geometry": {"type": "Point", "coordinates": [72.8786380132116, 19.0874057717641]}}, {"type": "Feature", "properties": {"id": 13, "name": "13", "kind": "garbage", "label": "13"}, "geometry": {"type": "Point", "coordinates": [72.87835106688, 19.0871900383906]}}, {"type": "Feature", "properties": {"id": 14, "name": "14", "kind": "garbage", "label": "14"}, "geometry": {"type": "Point", "coordinates": [72.8791930553861, 19.0870224784889]}}, {"type": "Feature", "properties": {"id": 15, "name": "15", "kind": "garbage", "label": "15"}, "geometry": {"type": "Point", "coordinates": [72.8791532599094, 19.0867858001278]}}, {"type": "Feature", "properties": {"id": 16, "name": "16", "kind": "garbage", "label": "16"}, "geometry": {"type": "Point", "coordinates": [72.8789668495188, 19.0863836563636]}}, {"type": "Feature", "properties": {"id": 17, "name": "17", "kind": "garbage", "label": "17"}, "geometry": {"type": "Point", "coordinates": [72.8789752275139, 19.0860129300811]}}, {"type": "Feature", "properties": {"id": 18, "name": "18", "kind": "garbage", "label": "18"}, "geometry": {"type": "Point", "coordinates": [72.8791951498849, 19.0857029442629]}}, {"type": "Feature", "properties": {"id": 19, "name": "19", "kind": "garbage", "label": "19"}, "geometry": {"type": "Point", "coordinates": [72.879038062477, 19.0851897920639]}}, {"type": "Feature", "properties": {"id": 20, "name": "20", "kind": "garbage", "label": "20"}, "geometry": {"type": "Point", "coordinates": [72.8783950513542, 19.0845802929214]}}, {"type": "Feature", "properties": {"id": 21, "name": "21", "kind": "garbage", "label": "21"}, "geometry": {"type": "Point", "coordinates": [72.8783615393738, 19.0846619783735]}}, {"type": "Feature", "properties": {"id": 22, "name": "22", "kind": "garbage", "label": "22"}, "geometry": {"type": "Point", "coordinates": [72.8783971458529, 19.0848023097912]}}, {"type": "Feature", "properties": {"id": 23, "name": "23", "kind": "garbage", "label": "23"}, "geometry": {"type": "Point", "coordinates": [72.8785311937743, 19.0849007512335]}}, {"type": "Feature", "properties": {"id": 24, "name": "24", "kind": "garbage", "label": "24"}, "geometry": {"type": "Point", "coordinates": [72.878570989251, 19.0850201376634]}}, {"type": "Feature", "properties": {"id": 25, "name": "25", "kind": "garbage", "label": "25"}, "geometry": {"type": "Point", "coordinates": [72.8785165322829, 19.0852505325283]}}, {"type": "Feature", "properties": {"id": 26, "name": "26", "kind": "garbage", "label": "26"}, "geometry": {"type": "Point", "coordinates": [72.8785730837497, 19.0853552574669]}}, {"type": "Feature", "properties": {"id": 27, "name": "27", "kind": "garbage", "label": "27"}, "geometry": {"type": "Point", "coordinates": [72.8783615393738, 19.0840734242188]}}, {"type": "Feature", "properties": {"id": 28, "name": "28", "kind": "garbage", "label": "28"}, "geometry": {"type": "Point", "coordinates": [72.8770901786196, 19.0836545244645]}}, {"type": "Feature", "properties": {"id": 29, "name": "29", "kind": "garbage", "label": "29"}, "geometry": {"type": "Point", "coordinates": [72.8770231546589, 19.0832858926807]}}, {"type": "Feature", "properties": {"id": 30, "name": "30", "kind": "garbage", "label": "30"}, "geometry": {"type": "Point", "coordinates": [72.8771488245852, 19.0827936854694]}}, {"type": "Feature", "properties": {"id": 31, "name": "31", "kind": "garbage", "label": "31"}, "geometry": {"type": "Point", "coordinates": [72.8778902771503, 19.0825821410935]}}, {"type": "Feature", "properties": {"id": 32, "name": "32", "kind": "garbage", "label": "32"}, "geometry": {"type": "Point", "coordinates": [72.8781143885188, 19.0820627053982]}}, {"type": "Feature", "properties": {"id": 33, "name": "33", "kind": "garbage", "label": "33"}, "geometry": {"type": "Point", "coordinates": [72.8784201853394, 19.081505568725]}}, {"type": "Feature", "properties": {"id": 34, "name": "34", "kind": "garbage", "label": "34"}, "geometry": {"type": "Point", "coordinates": [72.8783657283714, 19.0795744408577]}}, {"type": "Feature", "properties": {"id": 35, "name": "35", "kind": "garbage", "label": "35"}, "geometry": {"type": "Point", "coordinates": [72.878149994998, 19.0792120925703]}}, {"type": "Feature", "properties": {"id": 36, "name": "36", "kind": "garbage", "label": "36"}, "geometry": {"type": "Point", "coordinates": [72.878277759423, 19.0782758516194]}}, {"type": "Feature", "properties": {"id": 37, "name": "37", "kind": "garbage", "label": "37"}, "geometry": {"type": "Point", "coordinates": [72.8792684573419, 19.0798069302213]}}, {"type": "Feature", "properties": {"id": 38, "name": "38", "kind": "garbage", "label": "38"}, "geometry": {"type": "Point", "coordinates": [72.8776064725667, 19.0784025687951]}}, {"type": "Feature", "properties": {"id": 39, "name": "39", "kind": "garbage", "label": "39"}, "geometry": {"type": "Point", "coordinates": [72.8765110497093, 19.0794152589511]}}, {"type": "Feature", "properties": {"id": 40, "name": "40", "kind": "garbage", "label": "40"}, "geometry": {"type": "Point", "coordinates": [72.8753580281356, 19.0772725867079]}}, {"type": "Feature", "properties": {"id": 41, "name": "41", "kind": "garbage", "label": "41"}, "geometry": {"type": "Point", "coordinates": [72.8756345019734, 19.0772788702042]}}, {"type": "Feature", "properties": {"id": 42, "name": "42", "kind": "garbage", "label": "42"}, "geometry": {"type": "Point", "coordinates": [72.8758083453715, 19.0774631860961]}}, {"type": "Feature", "properties": {"id": 43, "name": "43", "kind": "garbage", "label": "43"}, "geometry": {"type": "Point", "coordinates": [72.8746647490423, 19.0774778475875]}}, {"type": "Feature", "properties": {"id": 44, "name": "44", "kind": "garbage", "label": "44"}, "geometry": {"type": "Point", "coordinates": [72.8744720551553, 19.0772600197153]}}, {"type": "Feature", "properties": {"id": 45, "name": "45", "kind": "garbage", "label": "45"}, "geometry": {"type": "Point", "coordinates": [72.8741557858408, 19.0771280662927]}}, {"type": "Feature", "properties": {"id": 46, "name": "46", "kind": "garbage", "label": "46"}, "geometry": {"type": "Point", "coordinates": [72.873879312003, 19.0772265077349]}}, {"type": "Feature", "properties": {"id": 47, "name": "47", "kind": "garbage", "label": "47"}, "geometry": {"type": "Point", "coordinates": [72.8731944109047, 19.0763133062706]}}, {"type": "Feature", "properties": {"id": 48, "name": "48", "kind": "garbage", "label": "48"}, "geometry": {"type": "Point", "coordinates": [72.873558853691, 19.0764305982018]}}, {"type": "Feature", "properties": {"id": 49, "name": "49", "kind": "garbage", "label": "49"}, "geometry": {"type": "Point", "coordinates": [72.8738960679932, 19.0766065360986]}}, {"type": "Feature", "properties": {"id": 50, "name": "50", "kind": "garbage", "label": "50"}, "geometry": {"type": "Point", "coordinates": [72.8730205675067, 19.0767845684942]}}, {"type": "Feature", "properties": {"id": 51, "name": "51", "kind": "garbage", "label": "51"}, "geometry": {"type": "Point", "coordinates": [72.8725032263101, 19.07588812302]}}, {"type": "Feature", "properties": {"id": 52, "name": "52", "kind": "garbage", "label": "52"}, "geometry": {"type": "Point", "coordinates": [72.8722644534502, 19.0760054149512]}}, {"type": "Feature", "properties": {"id": 53, "name": "53", "kind": "garbage", "label": "53"}, "geometry": {"type": "Point", "coordinates": [72.8717973802242, 19.0761771638504]}}, {"type": "Feature", "properties": {"id": 54, "name": "54", "kind": "garbage", "label": "54"}, "geometry": {"type": "Point", "coordinates": [72.871441315433, 19.075961430477]}}, {"type": "Feature", "properties": {"id": 55, "name": "55", "kind": "garbage", "label": "55"}, "geometry": {"type": "Point", "coordinates": [72.8721702010055, 19.0752995688652]}}, {"type": "Feature", "properties": {"id": 56, "name": "56", "kind": "garbage", "label": "56"}, "geometry": {"type": "Point", "coordinates": [72.8721094605411, 19.0755802317006]}}, {"type": "Feature", "properties": {"id": 57, "name": "57", "kind": "garbage", "label": "57"}, "geometry": {"type": "Point", "coordinates": [72.8715837413495, 19.0744345408726]}}, {"type": "Feature", "properties": {"id": 58, "name": "58", "kind": "garbage", "label": "58"}, "geometry": {"type": "Point", "coordinates": [72.8730624574821, 19.0725264524918]}}, {"type": "Feature", "properties": {"id": 59, "name": "59", "kind": "garbage", "label": "59"}, "geometry": {"type": "Point", "coordinates": [72.8730205675067, 19.0726709729071]}}, {"type": "Feature", "properties": {"id": 60, "name": "60", "kind": "garbage", "label": "60"}, "geometry": {"type": "Point", "coordinates": [72.8728278736197, 19.0729704862314]}}, {"type": "Feature", "properties": {"id": 61, "name": "61", "kind": "garbage", "label": "61"}, "geometry": {"type": "Point", "coordinates": [72.8724990373126, 19.0723609870889]}}, {"type": "Feature", "properties": {"id": 62, "name": "62", "kind": "garbage", "label": "62"}, "geometry": {"type": "Point", "coordinates": [72.8723335719097, 19.0725201689955]}}, {"type": "Feature", "properties": {"id": 63, "name": "63", "kind": "garbage", "label": "63"}, "geometry": {"type": "Point", "coordinates": [72.8722435084625, 19.0718624963813]}}, {"type": "Feature", "properties": {"id": 64, "name": "64", "kind": "garbage", "label": "64"}, "geometry": {"type": "Point", "coordinates": [72.8727671331554, 19.0715923060398]}}, {"type": "Feature", "properties": {"id": 65, "name": "65", "kind": "garbage", "label": "65"}, "geometry": {"type": "Point", "coordinates": [72.8737222245951, 19.0712592807351]}}, {"type": "Feature", "properties": {"id": 66, "name": "66", "kind": "garbage", "label": "66"}, "geometry": {"type": "Point", "coordinates": [72.873366159804, 19.072122214229]}}, {"type": "Feature", "properties": {"id": 67, "name": "67", "kind": "garbage", "label": "67"}, "geometry": {"type": "Point", "coordinates": [72.8736447281406, 19.0707126165558]}}, {"type": "Feature", "properties": {"id": 68, "name": "68", "kind": "garbage", "label": "68"}, "geometry": {"type": "Point", "coordinates": [72.8728571966025, 19.0690265450448]}}, {"type": "Feature", "properties": {"id": 69, "name": "69", "kind": "garbage", "label": "69"}, "geometry": {"type": "Point", "coordinates": [72.8736929016123, 19.0688150006689]}}, {"type": "Feature", "properties": {"id": 70, "name": "70", "kind": "garbage", "label": "70"}, "geometry": {"type": "Point", "coordinates": [72.8728090231308, 19.0659141198704]}}, {"type": "Feature", "properties": {"id": 71, "name": "71", "kind": "garbage", "label": "71"}, "geometry": {"type": "Point", "coordinates": [72.8711732195903, 19.0631577594872]}}, {"type": "Feature", "properties": {"id": 72, "name": "72", "kind": "garbage", "label": "72"}, "geometry": {"type": "Point", "coordinates": [72.8719398061406, 19.0638279990941]}}, {"type": "Feature", "properties": {"id": 73, "name": "73", "kind": "garbage", "label": "73"}, "geometry": {"type": "Point", "coordinates": [72.8723042489269, 19.0641966308779]}}, {"type": "Feature", "properties": {"id": 74, "name": "74", "kind": "garbage", "label": "74"}, "geometry": {"type": "Point", "coordinates": [72.8718036637205, 19.0627681827157]}}, {"type": "Feature", "properties": {"id": 75, "name": "75", "kind": "garbage", "label": "75"}, "geometry": {"type": "Point", "coordinates": [72.8719293336468, 19.0630383730573]}}, {"type": "Feature", "properties": {"id": 76, "name": "76", "kind": "garbage", "label": "76"}, "geometry": {"type": "Point", "coordinates": [72.8716696157991, 19.062500086873]}}, {"type": "Feature", "properties": {"id": 77, "name": "77", "kind": "garbage", "label": "77"}, "geometry": {"type": "Point", "coordinates": [72.8715565128655, 19.0622571250155]}}, {"type": "Feature", "properties": {"id": 78, "name": "78", "kind": "garbage", "label": "78"}, "geometry": {"type": "Point", "coordinates": [72.8714475989294, 19.0619261942096]}}, {"type": "Feature", "properties": {"id": 79, "name": "79", "kind": "garbage", "label": "79"}, "geometry": {"type": "Point", "coordinates": [72.8712967950178, 19.0616497203718]}}, {"type": "Feature", "properties": {"id": 80, "name": "80", "kind": "garbage", "label": "80"}, "geometry": {"type": "Point", "coordinates": [72.871120857121, 19.0611554186617]}}, {"type": "Feature", "properties": {"id": 81, "name": "81", "kind": "garbage", "label": "81"}, "geometry": {"type": "Point", "coordinates": [72.8701364426985, 19.0585163502097]}}, {"type": "Feature", "properties": {"id": 82, "name": "82", "kind": "garbage", "label": "82"}, "geometry": {"type": "Point", "coordinates": [72.8702223171481, 19.0586713431188]}}, {"type": "Feature", "properties": {"id": 83, "name": "83", "kind": "garbage", "label": "83"}, "geometry": {"type": "Point", "coordinates": [72.8704464285166, 19.0592578027748]}}, {"type": "Feature", "properties": {"id": 84, "name": "84", "kind": "garbage", "label": "84"}, "geometry": {"type": "Point", "coordinates": [72.8706056104232, 19.0597437264898]}}, {"type": "Feature", "properties": {"id": 85, "name": "85", "kind": "garbage", "label": "85"}, "geometry": {"type": "Point", "coordinates": [72.87078154832, 19.0600306728215]}}, {"type": "Feature", "properties": {"id": 86, "name": "86", "kind": "garbage", "label": "86"}, "geometry": {"type": "Point", "coordinates": [72.8708967457525, 19.060501935045]}}, {"type": "Feature", "properties": {"id": 87, "name": "87", "kind": "garbage", "label": "87"}, "geometry": {"type": "Point", "coordinates": [72.8710391716689, 19.0608035428681]}}, {"type": "Feature", "properties": {"id": 88, "name": "88", "kind": "garbage", "label": "88"}, "geometry": {"type": "Point", "coordinates": [72.8686891440474, 19.0561097711214]}}, {"type": "Feature", "properties": {"id": 89, "name": "89", "kind": "garbage", "label": "89"}, "geometry": {"type": "Point", "coordinates": [72.8689101136678, 19.0564260404358]}}, {"type": "Feature", "properties": {"id": 90, "name": "90", "kind": "garbage", "label": "90"}, "geometry": {"type": "Point", "coordinates": [72.8691247997919, 19.0568260897012]}}, {"type": "Feature", "properties": {"id": 91, "name": "91", "kind": "garbage", "label": "91"}, "geometry": {"type": "Point", "coordinates": [72.8691991544983, 19.0570470593216]}}, {"type": "Feature", "properties": {"id": 92, "name": "92", "kind": "garbage", "label": "92"}, "geometry": {"type": "Point", "coordinates": [72.8694054626273, 19.0571968159837]}}, {"type": "Feature", "properties": {"id": 93, "name": "93", "kind": "garbage", "label": "93"}, "geometry": {"type": "Point", "coordinates": [72.8695971092648, 19.0573895098707]}}, {"type": "Feature", "properties": {"id": 94, "name": "94", "kind": "garbage", "label": "94"}, "geometry": {"type": "Point", "coordinates": [72.866981603924, 19.0564899226484]}}, {"type": "Feature", "properties": {"id": 95, "name": "95", "kind": "garbage", "label": "95"}, "geometry": {"type": "Point", "coordinates": [72.866807760526, 19.0548771585944]}}, {"type": "Feature", "properties": {"id": 96, "name": "96", "kind": "garbage", "label": "96"}, "geometry": {"type": "Point", "coordinates": [72.8671135573466, 19.0549756000366]}}, {"type": "Feature", "properties": {"id": 97, "name": "97", "kind": "garbage", "label": "97"}, "geometry": {"type": "Point", "coordinates": [72.8673816531893, 19.0551452544371]}}, {"type": "Feature", "properties": {"id": 98, "name": "98", "kind": "garbage", "label": "98"}, "geometry": {"type": "Point", "coordinates": [72.8676644105235, 19.0553316648278]}}, {"type": "Feature", "properties": {"id": 99, "name": "99", "kind": "garbage", "label": "99"}, "geometry": {"type": "Point", "coordinates": [72.8679094668797, 19.0555159807197]}}, {"type": "Feature", "properties": {"id": 100, "name": "100", "kind": "garbage", "label": "100"}, "geometry": {"type": "Point", "coordinates": [72.8618165699537, 19.0547870951472]}}, {"type": "Feature", "properties": {"id": 101, "name": "101", "kind": "garbage", "label": "101"}, "geometry": {"type": "Point", "coordinates": [72.8620385868234, 19.0545985902578]}}, {"type": "Feature", "properties": {"id": 102, "name": "102", "kind": "garbage", "label": "102"}, "geometry": {"type": "Point", "coordinates": [72.8625412665286, 19.0554740907442]}}, {"type": "Feature", "properties": {"id": 103, "name": "103", "kind": "garbage", "label": "103"}, "geometry": {"type": "Point", "coordinates": [72.8628554413443, 19.0553861217958]}}, {"type": "Feature", "properties": {"id": 104, "name": "104", "kind": "garbage", "label": "104"}, "geometry": {"type": "Point", "coordinates": [72.8637791153025, 19.0539744296239]}}, {"type": "Feature", "properties": {"id": 105, "name": "105", "kind": "garbage", "label": "105"}, "geometry": {"type": "Point", "coordinates": [72.8643844254474, 19.0543849513831]}}, {"type": "Feature", "properties": {"id": 106, "name": "106", "kind": "garbage", "label": "106"}, "geometry": {"type": "Point", "coordinates": [72.8647446792361, 19.0544017073733]}}, {"type": "Feature", "properties": {"id": 107, "name": "107", "kind": "garbage", "label": "107"}, "geometry": {"type": "Point", "coordinates": [72.8653311388921, 19.0545797397688]}}, {"type": "Feature", "properties": {"id": 108, "name": "108", "kind": "garbage", "label": "108"}, "geometry": {"type": "Point", "coordinates": [72.8656013292336, 19.0547075041939]}}, {"type": "Feature", "properties": {"id": 109, "name": "109", "kind": "garbage", "label": "109"}, "geometry": {"type": "Point", "coordinates": [72.8659008425579, 19.0541755015059]}}, {"type": "Feature", "properties": {"id": 110, "name": "110", "kind": "garbage", "label": "110"}, "geometry": {"type": "Point", "coordinates": [72.8661040089388, 19.0542865099408]}}, {"type": "Feature", "properties": {"id": 111, "name": "111", "kind": "garbage", "label": "111"}, "geometry": {"type": "Point", "coordinates": [72.8662506238528, 19.0542906989384]}}, {"type": "Feature", "properties": {"id": 112, "name": "112", "kind": "garbage", "label": "112"}, "geometry": {"type": "Point", "coordinates": [72.8664307507471, 19.0542655649531]}}, {"type": "Feature", "properties": {"id": 113, "name": "113", "kind": "garbage", "label": "113"}, "geometry": {"type": "Point", "coordinates": [72.8665962161501, 19.0542173914814]}}, {"type": "Feature", "properties": {"id": 114, "name": "114", "kind": "garbage", "label": "114"}, "geometry": {"type": "Point", "coordinates": [72.8664454122385, 19.0533188515084]}}, {"type": "Feature", "properties": {"id": 115, "name": "115", "kind": "garbage", "label": "115"}, "geometry": {"type": "Point", "coordinates": [72.8665438536808, 19.0534298599433]}}, {"type": "Feature", "properties": {"id": 116, "name": "116", "kind": "garbage", "label": "116"}, "geometry": {"type": "Point", "coordinates": [72.8666255391328, 19.0537691687443]}}, {"type": "Feature", "properties": {"id": 117, "name": "117", "kind": "garbage", "label": "117"}, "geometry": {"type": "Point", "coordinates": [72.8667197915776, 19.0546635197197]}}, {"type": "Feature", "properties": {"id": 118, "name": "118", "kind": "garbage", "label": "118"}, "geometry": {"type": "Point", "coordinates": [72.8617788689758, 19.0551305929457]}}, {"type": "Feature", "properties": {"id": 119, "name": "119", "kind": "garbage", "label": "119"}, "geometry": {"type": "Point", "coordinates": [72.8606981076097, 19.054523188302]}}, {"type": "Feature", "properties": {"id": 120, "name": "120", "kind": "garbage", "label": "120"}, "geometry": {"type": "Point", "coordinates": [72.8596299132363, 19.0555913826754]}}, {"type": "Feature", "properties": {"id": 121, "name": "121", "kind": "garbage", "label": "121"}, "geometry": {"type": "Point", "coordinates": [72.8599985450201, 19.0564836391521]}}, {"type": "Feature", "properties": {"id": 122, "name": "122", "kind": "garbage", "label": "122"}, "geometry": {"type": "Point", "coordinates": [72.8540040895363, 19.0652428330142]}}, {"type": "Feature", "properties": {"id": 123, "name": "123", "kind": "garbage", "label": "123"}, "geometry": {"type": "Point", "coordinates": [72.854071113497, 19.0651967540412]}}, {"type": "Feature", "properties": {"id": 124, "name": "124", "kind": "garbage", "label": "124"}, "geometry": {"type": "Point", "coordinates": [72.854171649438, 19.0650082491518]}}, {"type": "Feature", "properties": {"id": 125, "name": "125", "kind": "garbage", "label": "125"}, "geometry": {"type": "Point", "coordinates": [72.8547078411235, 19.0638646528226]}}, {"type": "Feature", "properties": {"id": 126, "name": "126", "kind": "garbage", "label": "126"}, "geometry": {"type": "Point", "coordinates": [72.8548251330547, 19.0636426359528]}}, {"type": "Feature", "properties": {"id": 127, "name": "127", "kind": "garbage", "label": "127"}, "geometry": {"type": "Point", "coordinates": [72.8550178269417, 19.0633410281297]}}, {"type": "Feature", "properties": {"id": 128, "name": "128", "kind": "garbage", "label": "128"}, "geometry": {"type": "Point", "coordinates": [72.8583020010152, 19.0587959657957]}}, {"type": "Feature", "properties": {"id": 129, "name": "129", "kind": "garbage", "label": "129"}, "geometry": {"type": "Point", "coordinates": [72.8588758936786, 19.0582681521053]}}, {"type": "Feature", "properties": {"id": 130, "name": "130", "kind": "garbage", "label": "130"}, "geometry": {"type": "Point", "coordinates": [72.859449786342, 19.0579246543068]}}, {"type": "Feature", "properties": {"id": 131, "name": "131", "kind": "garbage", "label": "131"}, "geometry": {"type": "Point", "coordinates": [72.860136781939, 19.0576607474616]}}, {"type": "Feature", "properties": {"id": 132, "name": "132", "kind": "garbage", "label": "132"}, "geometry": {"type": "Point", "coordinates": [72.8582684890349, 19.0571119887835]}}, {"type": "Feature", "properties": {"id": 133, "name": "133", "kind": "garbage", "label": "133"}, "geometry": {"type": "Point", "coordinates": [72.8592193914771, 19.0572669816926]}}, {"type": "Feature", "properties": {"id": 134, "name": "134", "kind": "garbage", "label": "134"}, "geometry": {"type": "Point", "coordinates": [72.8596634252167, 19.0571496897614]}}, {"type": "Feature", "properties": {"id": 135, "name": "135", "kind": "garbage", "label": "135"}, "geometry": {"type": "Point", "coordinates": [72.8562724317057, 19.0573465726459]}}, {"type": "Feature", "properties": {"id": 136, "name": "136", "kind": "garbage", "label": "136"}, "geometry": {"type": "Point", "coordinates": [72.8517127078803, 19.0526150999212]}}, {"type": "Feature", "properties": {"id": 137, "name": "137", "kind": "garbage", "label": "137"}, "geometry": {"type": "Point", "coordinates": [72.8526740828164, 19.0533000010195]}}, {"type": "Feature", "properties": {"id": 138, "name": "138", "kind": "garbage", "label": "138"}, "geometry": {"type": "Point", "coordinates": [72.8435703439064, 19.0516861897161]}}, {"type": "Feature", "properties": {"id": 139, "name": "139", "kind": "garbage", "label": "139"}, "geometry": {"type": "Point", "coordinates": [72.8472367640058, 19.0520621522456]}}, {"type": "Feature", "properties": {"id": 140, "name": "140", "kind": "garbage", "label": "140"}, "geometry": {"type": "Point", "coordinates": [72.8474252688952, 19.0519406713168]}}, {"type": "Feature", "properties": {"id": 141, "name": "141", "kind": "garbage", "label": "141"}, "geometry": {"type": "Point", "coordinates": [72.8424487398143, 19.0512306362333]}}, {"type": "Feature", "properties": {"id": 142, "name": "142", "kind": "garbage", "label": "142"}, "geometry": {"type": "Point", "coordinates": [72.8420685882873, 19.0501425441216]}}, {"type": "Feature", "properties": {"id": 143, "name": "143", "kind": "garbage", "label": "143"}, "geometry": {"type": "Point", "coordinates": [72.8417313739851, 19.0509237921633]}}, {"type": "Feature", "properties": {"id": 144, "name": "144", "kind": "garbage", "label": "144"}, "geometry": {"type": "Point", "coordinates": [72.8410485673856, 19.0504567189373]}}, {"type": "Feature", "properties": {"id": 145, "name": "145", "kind": "garbage", "label": "145"}, "geometry": {"type": "Point", "coordinates": [72.8398819315699, 19.0484082991388]}}, {"type": "Feature", "properties": {"id": 146, "name": "146", "kind": "garbage", "label": "146"}, "geometry": {"type": "Point", "coordinates": [72.8395258667788, 19.0484334331241]}}, {"type": "Feature", "properties": {"id": 147, "name": "147", "kind": "garbage", "label": "147"}, "geometry": {"type": "Point", "coordinates": [72.8403259653094, 19.0485800480381]}}, {"type": "Feature", "properties": {"id": 148, "name": "148", "kind": "garbage", "label": "148"}, "geometry": {"type": "Point", "coordinates": [72.8370522637297, 19.048984286301]}}, {"type": "Feature", "properties": {"id": 149, "name": "149", "kind": "garbage", "label": "149"}, "geometry": {"type": "Point", "coordinates": [72.8379235752186, 19.0489696248096]}}, {"type": "Feature", "properties": {"id": 150, "name": "150", "kind": "garbage", "label": "150"}, "geometry": {"type": "Point", "coordinates": [72.8382063325527, 19.0486282215098]}}, {"type": "Feature", "properties": {"id": 151, "name": "151", "kind": "garbage", "label": "151"}, "geometry": {"type": "Point", "coordinates": [72.8385477358525, 19.0485821425368]}}, {"type": "Feature", "properties": {"id": 152, "name": "152", "kind": "garbage", "label": "152"}, "geometry": {"type": "Point", "coordinates": [72.8378565512579, 19.0484418111192]}}, {"type": "Feature", "properties": {"id": 153, "name": "153", "kind": "garbage", "label": "153"}, "geometry": {"type": "Point", "coordinates": [72.8357578634889, 19.0493529180847]}}, {"type": "Feature", "properties": {"id": 154, "name": "154", "kind": "garbage", "label": "154"}, "geometry": {"type": "Point", "coordinates": [72.8361600072531, 19.0491560352002]}}, {"type": "Feature", "properties": {"id": 155, "name": "155", "kind": "garbage", "label": "155"}, "geometry": {"type": "Point", "coordinates": [72.8402191458721, 19.047819744984]}}, {"type": "Feature", "properties": {"id": 156, "name": "156", "kind": "garbage", "label": "156"}, "geometry": {"type": "Point", "coordinates": [72.8396494422063, 19.0476961695565]}}, {"type": "Feature", "properties": {"id": 157, "name": "157", "kind": "garbage", "label": "157"}, "geometry": {"type": "Point", "coordinates": [72.8387362407419, 19.0477275870381]}}, {"type": "Feature", "properties": {"id": 158, "name": "158", "kind": "garbage", "label": "158"}, "geometry": {"type": "Point", "coordinates": [72.8385037513783, 19.0478762964509]}}, {"type": "Feature", "properties": {"id": 159, "name": "159", "kind": "garbage", "label": "159"}, "geometry": {"type": "Point", "coordinates": [72.8380555286412, 19.0480438563526]}}, {"type": "Feature", "properties": {"id": 160, "name": "160", "kind": "garbage", "label": "160"}, "geometry": {"type": "Point", "coordinates": [72.8377308813316, 19.0480606123428]}}, {"type": "Feature", "properties": {"id": 161, "name": "161", "kind": "garbage", "label": "161"}, "geometry": {"type": "Point", "coordinates": [72.8421272342528, 19.0494283200405]}}, {"type": "Feature", "properties": {"id": 162, "name": "162", "kind": "garbage", "label": "162"}, "geometry": {"type": "Point", "coordinates": [72.846140293899, 19.0441899786132]}}, {"type": "Feature", "properties": {"id": 163, "name": "163", "kind": "garbage", "label": "163"}, "geometry": {"type": "Point", "coordinates": [72.8459894899874, 19.0445167204215]}}, {"type": "Feature", "properties": {"id": 164, "name": "164", "kind": "garbage", "label": "164"}, "geometry": {"type": "Point", "coordinates": [72.8458721980562, 19.044906297193]}}, {"type": "Feature", "properties": {"id": 165, "name": "165", "kind": "garbage", "label": "165"}, "geometry": {"type": "Point", "coordinates": [72.8455035662724, 19.0452414169964]}}, {"type": "Feature", "properties": {"id": 166, "name": "166", "kind": "garbage", "label": "166"}, "geometry": {"type": "Point", "coordinates": [72.8452857384002, 19.0451953380234]}}, {"type": "Feature", "properties": {"id": 167, "name": "167", "kind": "garbage", "label": "167"}, "geometry": {"type": "Point", "coordinates": [72.8483604625967, 19.0462467764067]}}, {"type": "Feature", "properties": {"id": 168, "name": "168", "kind": "garbage", "label": "168"}, "geometry": {"type": "Point", "coordinates": [72.8479960198105, 19.0461965084362]}}, {"type": "Feature", "properties": {"id": 169, "name": "169", "kind": "garbage", "label": "169"}, "geometry": {"type": "Point", "coordinates": [72.8473509141889, 19.0460121925443]}}, {"type": "Feature", "properties": {"id": 170, "name": "170", "kind": "garbage", "label": "170"}, "geometry": {"type": "Point", "coordinates": [72.8454323533142, 19.0462928553797]}}, {"type": "Feature", "properties": {"id": 171, "name": "171", "kind": "garbage", "label": "171"}, "geometry": {"type": "Point", "coordinates": [72.8461277269063, 19.0460917834976]}}, {"type": "Feature", "properties": {"id": 172, "name": "172", "kind": "garbage", "label": "172"}, "geometry": {"type": "Point", "coordinates": [72.8512529654, 19.0469358665025]}}, {"type": "Feature", "properties": {"id": 173, "name": "173", "kind": "garbage", "label": "173"}, "geometry": {"type": "Point", "coordinates": [72.8509702080659, 19.0468499920529]}}, {"type": "Feature", "properties": {"id": 174, "name": "174", "kind": "garbage", "label": "174"}, "geometry": {"type": "Point", "coordinates": [72.8505743477981, 19.0467620231045]}}, {"type": "Feature", "properties": {"id": 175, "name": "175", "kind": "garbage", "label": "175"}, "geometry": {"type": "Point", "coordinates": [72.8502517949873, 19.0467180386303]}}, {"type": "Feature", "properties": {"id": 176, "name": "176", "kind": "garbage", "label": "176"}, "geometry": {"type": "Point", "coordinates": [72.8499857936433, 19.0465798017114]}}, {"type": "Feature", "properties": {"id": 177, "name": "177", "kind": "garbage", "label": "177"}, "geometry": {"type": "Point", "coordinates": [72.8509974365499, 19.0475286096548]}}, {"type": "Feature", "properties": {"id": 178, "name": "178", "kind": "garbage", "label": "178"}, "geometry": {"type": "Point", "coordinates": [72.8493134595377, 19.0498189440614]}}, {"type": "Feature", "properties": {"id": 179, "name": "179", "kind": "garbage", "label": "179"}, "geometry": {"type": "Point", "coordinates": [72.8510236177846, 19.0482396919877]}}, {"type": "Feature", "properties": {"id": 180, "name": "180", "kind": "garbage", "label": "180"}, "geometry": {"type": "Point", "coordinates": [72.8517064243841, 19.0474919559263]}}, {"type": "Feature", "properties": {"id": 181, "name": "181", "kind": "garbage", "label": "181"}, "geometry": {"type": "Point", "coordinates": [72.8617725854796, 19.0540037526067]}}, {"type": "Feature", "properties": {"id": 182, "name": "182", "kind": "garbage", "label": "182"}, "geometry": {"type": "Point", "coordinates": [72.860046718492, 19.0535471518745]}}, {"type": "Feature", "properties": {"id": 183, "name": "183", "kind": "garbage", "label": "183"}, "geometry": {"type": "Point", "coordinates": [72.8594728258286, 19.0540163195993]}}, {"type": "Feature", "properties": {"id": 184, "name": "184", "kind": "garbage", "label": "184"}, "geometry": {"type": "Point", "coordinates": [72.8584842224085, 19.0536016088426]}}, {"type": "Feature", "properties": {"id": 185, "name": "185", "kind": "garbage", "label": "185"}, "geometry": {"type": "Point", "coordinates": [72.8581449136075, 19.0530947401399]}}, {"type": "Feature", "properties": {"id": 186, "name": "186", "kind": "garbage", "label": "186"}, "geometry": {"type": "Point", "coordinates": [72.8580862676419, 19.0529627867173]}}, {"type": "Feature", "properties": {"id": 187, "name": "187", "kind": "garbage", "label": "187"}, "geometry": {"type": "Point", "coordinates": [72.8565593780375, 19.0518862143488]}}, {"type": "Feature", "properties": {"id": 188, "name": "188", "kind": "garbage", "label": "188"}, "geometry": {"type": "Point", "coordinates": [72.8562849986984, 19.0516893314643]}}, {"type": "Feature", "properties": {"id": 189, "name": "189", "kind": "garbage", "label": "189"}, "geometry": {"type": "Point", "coordinates": [72.8555686801186, 19.0507970749876]}}, {"type": "Feature", "properties": {"id": 190, "name": "190", "kind": "garbage", "label": "190"}, "geometry": {"type": "Point", "coordinates": [72.8555728691162, 19.0505059396584]}}, {"type": "Feature", "properties": {"id": 191, "name": "191", "kind": "garbage", "label": "191"}, "geometry": {"type": "Point", "coordinates": [72.8558619099466, 19.0505059396584]}}, {"type": "Feature", "properties": {"id": 192, "name": "192", "kind": "garbage", "label": "192"}, "geometry": {"type": "Point", "coordinates": [72.8559645403864, 19.0504054037174]}}, {"type": "Feature", "properties": {"id": 193, "name": "193", "kind": "garbage", "label": "193"}, "geometry": {"type": "Point", "coordinates": [72.8560483203373, 19.0502692612972]}}, {"type": "Feature", "properties": {"id": 194, "name": "194", "kind": "garbage", "label": "194"}, "geometry": {"type": "Point", "coordinates": [72.8552796392881, 19.0496094941842]}}, {"type": "Feature", "properties": {"id": 195, "name": "195", "kind": "garbage", "label": "195"}, "geometry": {"type": "Point", "coordinates": [72.8549110075044, 19.0493309258476]}}, {"type": "Feature", "properties": {"id": 196, "name": "196", "kind": "garbage", "label": "196"}, "geometry": {"type": "Point", "coordinates": [72.8545612262096, 19.0491612714472]}}, {"type": "Feature", "properties": {"id": 197, "name": "197", "kind": "garbage", "label": "197"}, "geometry": {"type": "Point", "coordinates": [72.8542575238877, 19.0489371600786]}}, {"type": "Feature", "properties": {"id": 198, "name": "198", "kind": "garbage", "label": "198"}, "geometry": {"type": "Point", "coordinates": [72.8541067199761, 19.0488450021327]}}, {"type": "Feature", "properties": {"id": 199, "name": "199", "kind": "garbage", "label": "199"}, "geometry": {"type": "Point", "coordinates": [72.8537695056739, 19.0487172377076]}}, {"type": "Feature", "properties": {"id": 200, "name": "200", "kind": "garbage", "label": "200"}, "geometry": {"type": "Point", "coordinates": [72.8536710642317, 19.0485350163145]}}, {"type": "Feature", "properties": {"id": 201, "name": "201", "kind": "garbage", "label": "201"}, "geometry": {"type": "Point", "coordinates": [72.8533945903939, 19.0483590784177]}}, {"type": "Feature", "properties": {"id": 202, "name": "202", "kind": "garbage", "label": "202"}, "geometry": {"type": "Point", "coordinates": [72.8527809022538, 19.0479569346536]}}, {"type": "Feature", "properties": {"id": 203, "name": "203", "kind": "garbage", "label": "203"}, "geometry": {"type": "Point", "coordinates": [72.8492914673007, 19.0522653186264]}}, {"type": "Feature", "properties": {"id": 204, "name": "204", "kind": "garbage", "label": "204"}, "geometry": {"type": "Point", "coordinates": [72.8521378911311, 19.0528769122677]}}, {"type": "Feature", "properties": {"id": 205, "name": "205", "kind": "garbage", "label": "205"}, "geometry": {"type": "Point", "coordinates": [72.8579878261997, 19.0552080894003]}}, {"type": "Feature", "properties": {"id": 206, "name": "206", "kind": "garbage", "label": "206"}, "geometry": {"type": "Point", "coordinates": [72.8572149561531, 19.0592190545476]}}, {"type": "Feature", "properties": {"id": 207, "name": "207", "kind": "garbage", "label": "207"}, "geometry": {"type": "Point", "coordinates": [72.8569761832932, 19.0588001547933]}}, {"type": "Feature", "properties": {"id": 208, "name": "208", "kind": "garbage", "label": "208"}, "geometry": {"type": "Point", "coordinates": [72.8646043478187, 19.0561610863413]}}, {"type": "Feature", "properties": {"id": 209, "name": "209", "kind": "garbage", "label": "209"}, "geometry": {"type": "Point", "coordinates": [72.8711067192546, 19.0644092225032]}}, {"type": "Feature", "properties": {"id": 210, "name": "210", "kind": "garbage", "label": "210"}, "geometry": {"type": "Point", "coordinates": [72.8717256436416, 19.0655601495781]}}, {"type": "Feature", "properties": {"id": 211, "name": "211", "kind": "garbage", "label": "211"}, "geometry": {"type": "Point", "coordinates": [72.8723791272583, 19.066770769868]}}, {"type": "Feature", "properties": {"id": 212, "name": "212", "kind": "garbage", "label": "212"}, "geometry": {"type": "Point", "coordinates": [72.873013760386, 19.0708278139883]}}]}