<?xml version="1.0" encoding="UTF-8"?>
<kml xmlns="http://www.opengis.net/kml/2.2">
<Document>
  <name>Mithi River Silt Classification - July 2026</name>
  <description>Silt/sediment classification derived from raster analysis. Colors: Green=Low Silt, Yellow=Moderate Silt, Orange=High Silt, Red=Very High Silt, Blue=Water Mask.</description>

  <GroundOverlay>
    <name>Silt Classification - July 2026</name>
    <description>Classified silt raster for July 2026</description>
    <Icon>
      <href>Mithi_River_2026_07_July_Silt_Classification_overlay.png</href>
    </Icon>
    <LatLonBox>
      <north>19.087942146142066</north>
      <south>19.045002675561154</south>
      <east>72.87942068533266</east>
      <west>72.83450492112668</west>
      <rotation>0</rotation>
    </LatLonBox>
  </GroundOverlay>

  <ScreenOverlay>
    <name>Legend</name>
    <Icon>
      <href>legend.png</href>
    </Icon>
    <overlayXY x="0" y="0" xunits="fraction" yunits="fraction"/>
    <screenXY x="0.01" y="0.01" xunits="fraction" yunits="fraction"/>
    <rotationXY x="0" y="0" xunits="fraction" yunits="fraction"/>
    <size x="0" y="0" xunits="fraction" yunits="fraction"/>
  </ScreenOverlay>

</Document>
</kml>
